[{"OBJECT_NAME":"STARLINK-31485","OBJECT_ID":"2024-056N","EPOCH":"2026-03-08T12:40:43.421376","MEAN_MOTION":15.27580311,"ECCENTRICITY":0.00014106,"INCLINATION":43.0014,"RA_OF_ASC_NODE":237.5287,"ARG_OF_PERICENTER":254.6385,"MEAN_ANOMALY":105.431,"EPHEMERIS_TYPE":0,"CLASSIFICATION_TYPE":"U","NORAD_CAT_ID":59308,"ELEMENT_SET_NO":999,"REV_AT_EPOCH":11097,"BSTAR":1.5700811e-5,"MEAN_MOTION_DOT":1.7e-6,"MEAN_MOTION_DDOT":0},{"OBJECT_NAME":"TRANSPORTER-1 OBJECT AA","OBJECT_ID":"2021-006AA","EPOCH":"2026-03-09T22:58:14.761920","MEAN_MOTION":15.29982294,"ECCENTRICITY":0.00086604,"INCLINATION":97.2381,"RA_OF_ASC_NODE":112.457,"ARG_OF_PERICENTER":185.709,"MEAN_ANOMALY":174.4054,"EPHEMERIS_TYPE":0,"CLASSIFICATION_TYPE":"U","NORAD_CAT_ID":47437,"ELEMENT_SET_NO":999,"REV_AT_EPOCH":28414,"BSTAR":0.0002197941,"MEAN_MOTION_DOT":6.312e-5,"MEAN_MOTION_DDOT":0}]
